[{"OBJECT_NAME":"YAOGAN-43 01E","OBJECT_ID":"2024-148E","EPOCH":"2026-03-09T10:46:29.401824","MEAN_MOTION":15.23061231,"ECCENTRICITY":0.00047279,"INCLINATION":34.9939,"RA_OF_ASC_NODE":67.5277,"ARG_OF_PERICENTER":25.6868,"MEAN_ANOMALY":334.4081,"EPHEMERIS_TYPE":0,"CLASSIFICATION_TYPE":"U","NORAD_CAT_ID":60462,"ELEMENT_SET_NO":999,"REV_AT_EPOCH":8694,"BSTAR":0.00071899242,"MEAN_MOTION_DOT":0.0001736,"MEAN_MOTION_DDOT":0},{"OBJECT_NAME":"OBJECT G","OBJECT_ID":"2026-023G","EPOCH":"2026-03-09T17:12:13.064832","MEAN_MOTION":15.23234695,"ECCENTRICITY":0.00237819,"INCLINATION":96.6246,"RA_OF_ASC_NODE":144.1318,"ARG_OF_PERICENTER":118.2502,"MEAN_ANOMALY":242.1141,"EPHEMERIS_TYPE":0,"CLASSIFICATION_TYPE":"U","NORAD_CAT_ID":67680,"ELEMENT_SET_NO":999,"REV_AT_EPOCH":484,"BSTAR":0.00060026958,"MEAN_MOTION_DOT":0.00014279,"MEAN_MOTION_DDOT":0}]
